CCSDS_OMM_VERS = 2.0
CREATION_DATE  = 
ORIGINATOR     = 

OBJECT_NAME    = CZ-2C R/B
OBJECT_ID      = 2022-058K
CENTER_NAME    = EARTH
REF_FRAME      = TEME
TIME_SYSTEM    = UTC
MEAN_ELEMENT_THEORY = SGP/SGP4

EPOCH          = 2025-11-20T15:53:31.704000
MEAN_MOTION    = 15.46965912
ECCENTRICITY   = .0048012
INCLINATION    = 50.1890
RA_OF_ASC_NODE = 156.0097
ARG_OF_PERICENTER = 107.1687
MEAN_ANOMALY   = 253.4545

EPHEMERIS_TYPE = 0
CLASSIFICATION_TYPE = U
NORAD_CAT_ID   = 52794
ELEMENT_SET_NO = 999
REV_AT_EPOCH   = 19321
BSTAR          = .46962E-3
MEAN_MOTION_DOT = .24852E-3
MEAN_MOTION_DDOT = 0

CCSDS_OMM_VERS = 2.0
CREATION_DATE  = 
ORIGINATOR     = 

OBJECT_NAME    = CZ-2C R/B
OBJECT_ID      = 2022-132E
CENTER_NAME    = EARTH
REF_FRAME      = TEME
TIME_SYSTEM    = UTC
MEAN_ELEMENT_THEORY = SGP/SGP4

EPOCH          = 2025-11-20T10:52:39.764928
MEAN_MOTION    = 15.53046322
ECCENTRICITY   = .002352
INCLINATION    = 97.2946
RA_OF_ASC_NODE = 320.2580
ARG_OF_PERICENTER = 130.3974
MEAN_ANOMALY   = 229.9337

EPHEMERIS_TYPE = 0
CLASSIFICATION_TYPE = U
NORAD_CAT_ID   = 54039
ELEMENT_SET_NO = 999
REV_AT_EPOCH   = 17337
BSTAR          = .43196E-3
MEAN_MOTION_DOT = .27251E-3
MEAN_MOTION_DDOT = 0

CCSDS_OMM_VERS = 2.0
CREATION_DATE  = 
ORIGINATOR     = 

OBJECT_NAME    = GSLV R/B
OBJECT_ID      = 2022-138AN
CENTER_NAME    = EARTH
REF_FRAME      = TEME
TIME_SYSTEM    = UTC
MEAN_ELEMENT_THEORY = SGP/SGP4

EPOCH          = 2025-11-20T15:34:24.495168
MEAN_MOTION    = 14.95967403
ECCENTRICITY   = .0021339
INCLINATION    = 87.3845
RA_OF_ASC_NODE = 202.8685
ARG_OF_PERICENTER = 180.9630
MEAN_ANOMALY   = 179.1564

EPHEMERIS_TYPE = 0
CLASSIFICATION_TYPE = U
NORAD_CAT_ID   = 54149
ELEMENT_SET_NO = 999
REV_AT_EPOCH   = 16762
BSTAR          = .19918E-3
MEAN_MOTION_DOT = .2269E-4
MEAN_MOTION_DDOT = 0

CCSDS_OMM_VERS = 2.0
CREATION_DATE  = 
ORIGINATOR     = 

OBJECT_NAME    = XRISM
OBJECT_ID      = 2023-137A
CENTER_NAME    = EARTH
REF_FRAME      = TEME
TIME_SYSTEM    = UTC
MEAN_ELEMENT_THEORY = SGP/SGP4

EPOCH          = 2025-11-20T13:26:53.416608
MEAN_MOTION    = 15.10036843
ECCENTRICITY   = .0007731
INCLINATION    = 31.0031
RA_OF_ASC_NODE = 268.7118
ARG_OF_PERICENTER = 19.2494
MEAN_ANOMALY   = 340.8435

EPHEMERIS_TYPE = 0
CLASSIFICATION_TYPE = U
NORAD_CAT_ID   = 57800
ELEMENT_SET_NO = 999
REV_AT_EPOCH   = 12127
BSTAR          = .38035E-3
MEAN_MOTION_DOT = .6438E-4
MEAN_MOTION_DDOT = 0

CCSDS_OMM_VERS = 2.0
CREATION_DATE  = 
ORIGINATOR     = 

OBJECT_NAME    = ACS3
OBJECT_ID      = 2024-077B
CENTER_NAME    = EARTH
REF_FRAME      = TEME
TIME_SYSTEM    = UTC
MEAN_ELEMENT_THEORY = SGP/SGP4

EPOCH          = 2025-11-20T15:26:12.259680
MEAN_MOTION    = 13.84008801
ECCENTRICITY   = .0067468
INCLINATION    = 97.2945
RA_OF_ASC_NODE = 285.1669
ARG_OF_PERICENTER = 17.9621
MEAN_ANOMALY   = 342.3902

EPHEMERIS_TYPE = 0
CLASSIFICATION_TYPE = U
NORAD_CAT_ID   = 59588
ELEMENT_SET_NO = 999
REV_AT_EPOCH   = 7908
BSTAR          = -.43528E-2
MEAN_MOTION_DOT = -.495E-4
MEAN_MOTION_DDOT = 0

