CZ-2C R/B               
1 52794U 22058K   25324.66217250  .00024852  00000+0  46962-3 0  9999
2 52794  50.1890 156.0097 0048012 107.1687 253.4545 15.46965912193217
CZ-2C R/B               
1 54039U 22132E   25324.45323802  .00027251  00000+0  43196-3 0  9996
2 54039  97.2946 320.2580 0023520 130.3974 229.9337 15.53046322173376
GSLV R/B                
1 54149U 22138AN  25324.64889462  .00002269  00000+0  19918-3 0  9991
2 54149  87.3845 202.8685 0021339 180.9630 179.1564 14.95967403167629
XRISM                   
1 57800U 23137A   25324.56034047  .00006438  00000+0  38035-3 0  9993
2 57800  31.0031 268.7118 0007731  19.2494 340.8435 15.10036843121271
ACS3                    
1 59588U 24077B   25324.64319745 -.00004950  00000+0 -43528-2 0  9993
2 59588  97.2945 285.1669 0067468  17.9621 342.3902 13.84008801 79087
